NORAD_CAT_ID,OBJECT_NAME,OBJECT_TYPE,EPOCH,MEAN_MOTION,ECCENTRICITY,INCLINATION,RA_OF_ASC_NODE,ARG_OF_PERICENTER,MEAN_ANOMALY,BSTAR,MEAN_MOTION_DOT,MEAN_MOTION_DDOT,TLE_LINE0,TLE_LINE1,TLE_LINE2,SEMIMAJOR_AXIS,PERIOD,APOGEE,PERIGEE,DECAYED
50180.0,STARLINK-3265,PAYLOAD,2022-12-16 03:21:37,15.08832422,0.0003208999999999,53.2163,144.3336,51.4187,308.7092,3.6465e-07,-2.83e-06,0.0,0 STARLINK-3265,1 50180U 21125AA  22350.14001197 -.00000283  00000-0  36465-6 0  9994,2 50180  53.2163 144.3336 0003209  51.4187 308.7092 15.08832422 55442,6917.904,95.438,541.989,537.549,0.0
50180.0,STARLINK-3265,PAYLOAD,2022-12-16 11:18:32,15.08832358,0.0002878999999999,53.2164,142.8468,50.76,309.3648,9.5492e-05,1.231e-05,0.0,0 STARLINK-3265,1 50180U 21125AA  22350.47121021  .00001231  00000-0  95492-4 0  9995,2 50180  53.2164 142.8468 0002879  50.7600 309.3648 15.08832358 58621,6917.904,95.438,541.76,537.7769999999998,0.0
50180.0,STARLINK-3265,PAYLOAD,2022-12-16 19:15:27,15.08839024,0.0002921,53.2157,141.3601,51.0589,309.0663,0.00013267,1.824e-05,0.0,0 STARLINK-3265,1 50180U 21125AA  22350.80240605  .00001824  00000-0  13267-3 0  9999,2 50180  53.2157 141.3601 0002921  51.0589 309.0663 15.08839024 55543,6917.8830000000025,95.438,541.769,537.7280000000002,0.0
50180.0,STARLINK-3265,PAYLOAD,2022-12-17 11:09:19,15.08842813,0.0002945,53.2154,138.3863,52.0985,308.0273,0.0001279,1.748e-05,0.0,0 STARLINK-3265,1 50180U 21125AA  22351.46480430  .00001748  00000-0  12790-3 0  9999,2 50180  53.2154 138.3863 0002945  52.0985 308.0273 15.08842813 58777,6917.871999999999,95.437,541.774,537.6990000000002,0.0
50180.0,STARLINK-3265,PAYLOAD,2022-12-17 17:30:51,15.08837815,0.0002895,53.2153,137.197,51.6156,308.5096,4.5049e-05,4.28e-06,0.0,0 STARLINK-3265,1 50180U 21125AA  22351.72976657  .00000428  00000-0  45049-4 0  9997,2 50180  53.2153 137.1970 0002895  51.6156 308.5096 15.08837815 58810,6917.887,95.438,541.755,537.749,0.0
50180.0,STARLINK-3265,PAYLOAD,2022-12-18 04:38:33,15.08843025,0.0002874,53.2152,135.1157,51.0834,309.0414,0.00019341,2.791e-05,0.0,0 STARLINK-3265,1 50180U 21125AA  22352.19344545  .00002791  00000-0  19341-3 0  9994,2 50180  53.2152 135.1157 0002874  51.0834 309.0414 15.08843025 55758,6917.871,95.437,541.724,537.748,0.0
50180.0,STARLINK-3265,PAYLOAD,2022-12-18 09:24:42,15.08846704,0.0002864,53.2152,134.2235,51.1857,308.9391,0.00026803,3.981e-05,0.0,0 STARLINK-3265,1 50180U 21125AA  22352.39216412  .00003981  00000-0  26803-3 0  9990,2 50180  53.2152 134.2235 0002864  51.1857 308.9391 15.08846704 58910,6917.86,95.437,541.706,537.744,0.0
50180.0,STARLINK-3265,PAYLOAD,2022-12-18 17:21:38,15.08848208,0.0002918999999999,53.2161,132.7385,41.67,318.4514,0.00025032,3.699e-05,0.0,0 STARLINK-3265,1 50180U 21125AA  22352.72336322  .00003699  00000-0  25032-3 0  9999,2 50180  53.2161 132.7385 0002919  41.6700 318.4514 15.08848208 58960,6917.855,95.437,541.74,537.701,0.0
50180.0,STARLINK-3265,PAYLOAD,2022-12-19 10:50:52,15.08851233,0.0002987,53.2166,129.4674,47.3078,312.8166,0.00016703,2.372e-05,0.0,0 STARLINK-3265,1 50180U 21125AA  22353.45200043  .00002372  00000-0  16703-3 0  9992,2 50180  53.2166 129.4674 0002987  47.3078 312.8166 15.08851233 55943,6917.846,95.437,541.7769999999998,537.645,0.0
50180.0,STARLINK-3265,PAYLOAD,2022-12-19 15:37:01,15.08857725,0.0002746,53.2159,128.5735,50.5478,309.5757,0.00033002,4.9700000000000015e-05,0.0,0 STARLINK-3265,1 50180U 21125AA  22353.65071540  .00004970  00000-0  33002-3 0  9999,2 50180  53.2159 128.5735 0002746  50.5478 309.5757 15.08857725 59109,6917.826,95.436,541.591,537.7919999999998,0.0
50180.0,STARLINK-3265,PAYLOAD,2022-12-20 12:17:03,15.08843506,0.0002798,53.2169,124.7084,49.9672,310.1565,-1.0844000000000003e-05,-4.61e-06,0.0,0 STARLINK-3265,1 50180U 21125AA  22354.51184094 -.00000461  00000-0 -10844-4 0  9997,2 50180  53.2169 124.7084 0002798  49.9672 310.1565 15.08843506 59231,6917.87,95.437,541.67,537.799,0.0
50180.0,STARLINK-3265,PAYLOAD,2022-12-21 04:10:54,15.08835279,0.0002709,53.2173,121.735,46.5638,313.5579,6.504e-06,-1.85e-06,0.0,0 STARLINK-3265,1 50180U 21125AA  22355.17424653 -.00000185  00000-0  65040-5 0  9999,2 50180  53.2173 121.7350 0002709  46.5638 313.5579 15.08835279 56200,6917.895,95.438,541.634,537.886,0.0
50180.0,STARLINK-3265,PAYLOAD,2022-12-21 10:32:27,15.08835367,0.0002665,53.2171,120.5451,47.3524,312.7692,-6.4817e-05,-1.32e-05,0.0,0 STARLINK-3265,1 50180U 21125AA  22355.43920869 -.00001320  00000-0 -64817-4 0  9991,2 50180  53.2171 120.5451 0002665  47.3524 312.7692 15.08835367 59377,6917.895,95.438,541.6030000000002,537.9159999999998,0.0
50180.0,STARLINK-3265,PAYLOAD,2022-12-22 08:47:51,15.08835951,0.0002638,53.2172,116.3821,46.584,313.5372,6.8648e-05,8.04e-06,0.0,0 STARLINK-3265,1 50180U 21125AA  22356.36656586  .00000804  00000-0  68648-4 0  9996,2 50180  53.2172 116.3821 0002638  46.5840 313.5372 15.08835951 56385,6917.893,95.438,541.5830000000002,537.933,0.0
50180.0,STARLINK-3265,PAYLOAD,2022-12-22 15:09:24,15.08831237,0.0002666,53.2175,115.1927,46.4687,313.6526,2.4692e-05,1.04e-06,0.0,0 STARLINK-3265,1 50180U 21125AA  22356.63153140  .00000104  00000-0  24692-4 0  9998,2 50180  53.2175 115.1927 0002666  46.4687 313.6526 15.08831237 59558,6917.906999999997,95.438,541.616,537.928,0.0
50180.0,STARLINK-3265,PAYLOAD,2022-12-23 10:14:02,15.08830659,0.0002753,53.2168,111.6246,43.3189,316.802,8.2141e-05,1.019e-05,0.0,0 STARLINK-3265,1 50180U 21125AA  22357.42641473  .00001019  00000-0  82141-4 0  9996,2 50180  53.2168 111.6246 0002753  43.3189 316.8020 15.08830659 59679,6917.909000000002,95.438,541.678,537.869,0.0
50180.0,STARLINK-3265,PAYLOAD,2022-12-23 18:10:57,15.08851873,0.0002861,53.2168,110.1377,41.5431,318.5778,-0.00011792,-2.166e-05,0.0,0 STARLINK-3265,1 50180U 21125AA  22357.75760862 -.00002166  00000-0 -11792-3 0  9995,2 50180  53.2168 110.1377 0002861  41.5431 318.5778 15.08851873 59724,6917.844,95.437,541.688,537.73,0.0
50180.0,STARLINK-3265,PAYLOAD,2022-12-24 00:32:30,15.08828918,0.0002602,53.217,108.9488,46.761,313.3599,0.00038125,5.783e-05,0.0,0 STARLINK-3265,1 50180U 21125AA  22358.02257054  .00005783  00000-0  38125-3 0  9995,2 50180  53.2170 108.9488 0002602  46.7610 313.3599 15.08828918 56639,6917.9140000000025,95.438,541.5790000000002,537.979,0.0
50180.0,STARLINK-3265,PAYLOAD,2022-12-24 10:04:48,15.08844574,0.0002544,53.2162,107.1664,43.9671,316.1523,6.6958e-05,7.78e-06,0.0,0 STARLINK-3265,1 50180U 21125AA  22358.42000799  .00000778  00000-0  66958-4 0  9996,2 50180  53.2162 107.1664 0002544  43.9671 316.1523 15.08844574 59826,6917.866,95.437,541.491,537.972,0.0
50180.0,STARLINK-3265,PAYLOAD,2022-12-25 00:23:17,15.08836004,0.0002601,53.2166,104.4888,42.5512,317.5681,3.9033e-05,3.33e-06,0.0,0 STARLINK-3265,1 50180U 21125AA  22359.01617336  .00000333  00000-0  39033-4 0  9994,2 50180  53.2166 104.4888 0002601  42.5512 317.5681 15.08836004 56782,6917.893,95.438,541.557,537.9580000000002,0.0
50180.0,STARLINK-3265,PAYLOAD,2022-12-25 13:06:22,15.08835207,0.0002537,53.2165,102.1101,41.2796,318.8388,3.1234e-05,2.09e-06,0.0,0 STARLINK-3265,1 50180U 21125AA  22359.54609417  .00000209  00000-0  31234-4 0  9990,2 50180  53.2165 102.1101 0002537  41.2796 318.8388 15.08835207 59990,6917.895,95.438,541.515,538.005,0.0
50180.0,STARLINK-3265,PAYLOAD,2022-12-25 14:41:45,15.08836392,0.0002563999999999,53.2179,101.8103,39.6527,320.4652,2.3652e-05,8.8e-07,0.0,0 STARLINK-3265,1 50180U 21125AA  22359.61233334  .00000088  00000-0  23652-4 0  9999,2 50180  53.2179 101.8103 0002564  39.6527 320.4652 15.08836392 60009,6917.891,95.438,541.53,537.9830000000002,0.0
50180.0,STARLINK-3265,PAYLOAD,2022-12-26 12:57:09,15.08842559,0.0002528,53.2175,97.6482,38.9485,321.1689,1.8671e-05,9e-08,0.0,0 STARLINK-3265,1 50180U 21125AA  22360.53968864  .00000009  00000-0  18671-4 0  9993,2 50180  53.2175  97.6482 0002528  38.9485 321.1689 15.08842559 60147,6917.873000000001,95.437,541.486,537.989,0.0
50180.0,STARLINK-3265,PAYLOAD,2022-12-27 06:26:23,15.08841965,0.0002509,53.2171,94.3769,35.8513,324.2647,8.1705e-05,1.012e-05,0.0,0 STARLINK-3265,1 50180U 21125AA  22361.26832655  .00001012  00000-0  81705-4 0  9995,2 50180  53.2171  94.3769 0002509  35.8513 324.2647 15.08841965 60252,6917.874,95.437,541.475,538.004,0.0
50180.0,STARLINK-3265,PAYLOAD,2022-12-27 12:47:55,15.08851716,0.0002674,53.2172,93.189,35.3591,324.7578,0.0001591,2.245e-05,0.0,0 STARLINK-3265,1 50180U 21125AA  22361.53327746  .00002245  00000-0  15910-3 0  9998,2 50180  53.2172  93.1890 0002674  35.3591 324.7578 15.08851716 57168,6917.845,95.437,541.559,537.86,0.0
50180.0,STARLINK-3265,PAYLOAD,2022-12-28 06:17:09,15.08856814,0.00026,53.217,89.9171,37.5934,322.5239,9.7771e-05,1.269e-05,0.0,0 STARLINK-3265,1 50180U 21125AA  22362.26191090  .00001269  00000-0  97771-4 0  9991,2 50180  53.2170  89.9171 0002600  37.5934 322.5239 15.08856814 60400,6917.829000000002,95.436,541.493,537.895,0.0
50180.0,STARLINK-3265,PAYLOAD,2022-12-28 15:49:29,15.08838239,0.0002521,53.2174,88.1323,21.8679,338.242,-3.019e-05,-7.69e-06,0.0,0 STARLINK-3265,1 50180U 21125AA  22362.65936360 -.00000769  00000-0 -30190-4 0  9999,2 50180  53.2174  88.1323 0002521  21.8679 338.2420 15.08838239 57333,6917.886,95.438,541.495,538.007,0.0
50180.0,STARLINK-3265,PAYLOAD,2022-12-29 12:29:31,15.08826816,0.0002465,53.2172,84.2667,32.1202,327.994,-0.0001395999999999,-2.509e-05,0.0,0 STARLINK-3265,1 50180U 21125AA  22363.52049852 -.00002509  00000-0 -13960-3 0  9996,2 50180  53.2172  84.2667 0002465  32.1202 327.9940 15.08826816 57467,6917.920999999999,95.438,541.491,538.08,0.0
50180.0,STARLINK-3265,PAYLOAD,2022-12-30 12:20:17,15.08832026,0.0002522,53.2181,79.8073,28.6291,331.4839,0.00011468,1.537e-05,0.0,0 STARLINK-3265,1 50180U 21125AA  22364.51409478  .00001537  00000-0  11468-3 0  9999,2 50180  53.2181  79.8073 0002522  28.6291 331.4839 15.08832026 57614,6917.905,95.438,541.514,538.025,0.0
